{"type": "FeatureCollection", "features": [ {"type": "Feature", "properties": {"norad_id": 33724, "name": "FENGYUN 1C DEB", "group": "fengyun-1c-debris", "lat": 29.102996257944216, "lon": -174.31178508469569, "alt_km": 806.4670939975631, "timestamp": "2025-12-16T15:45:51.333168+00:00", "meta": {"OBJECT_NAME": "FENGYUN 1C DEB", "OBJECT_ID": "1999-025DHM", "EPOCH": "2025-12-12T20:17:56.179104", "MEAN_MOTION": 14.19646341, "ECCENTRICITY": 0.00274383, "INCLINATION": 98.6039, "RA_OF_ASC_NODE": 357.1507, "ARG_OF_PERICENTER": 181.2748, "MEAN_ANOMALY": 302.9388, "EPHEMERIS_TYPE": 0, "CLASSIFICATION_TYPE": "U", "NORAD_CAT_ID": 33724, "ELEMENT_SET_NO": 999, "REV_AT_EPOCH": 93963, "BSTAR": 0.00065361765, "MEAN_MOTION_DOT": 1.343e-05, "MEAN_MOTION_DDOT": 0}, "tle": {"line1": "1 33724U 99025DHM 25346.84578911  .00001343  00000+0  65362-3 0  9992", "line2": "2 33724  98.6039 357.1507 0027438 181.2748 302.9388 14.19646341939631"}}, "geometry": {"type": "Point", "coordinates": [-174.31178508469569, 29.102996257944216]}}, {"type": "Feature", "properties": {"norad_id": 33726, "name": "FENGYUN 1C DEB", "group": "fengyun-1c-debris", "lat": 65.73444149829774, "lon": 95.03155906261729, "alt_km": 742.5646587376195, "timestamp": "2025-12-16T15:45:51.333178+00:00", "meta": {"OBJECT_NAME": "FENGYUN 1C DEB", "OBJECT_ID": "1999-025DHP", "EPOCH": "2025-12-15T07:20:08.395008", "MEAN_MOTION": 14.14308813, "ECCENTRICITY": 0.01926449, "INCLINATION": 98.6388, "RA_OF_ASC_NODE": 113.4327, "ARG_OF_PERICENTER": 23.7554, "MEAN_ANOMALY": 6.1714, "EPHEMERIS_TYPE": 0, "CLASSIFICATION_TYPE": "U", "NORAD_CAT_ID": 33726, "ELEMENT_SET_NO": 999, "REV_AT_EPOCH": 91968, "BSTAR": 0.00029618578, "MEAN_MOTION_DOT": 6.33e-06, "MEAN_MOTION_DDOT": 0}, "tle": {"line1": "1 33726U 99025DHP 25349.30565272  .00000633  00000+0  29619-3 0  9990", "line2": "2 33726  98.6388 113.4327 0192644  23.7554   6.1714 14.14308813919683"}}, "geometry": {"type": "Point", "coordinates": [95.03155906261729, 65.73444149829774]}}, {"type": "Feature", "properties": {"norad_id": 33728, "name": "FENGYUN 1C DEB", "group": "fengyun-1c-debris", "lat": 31.805894242384287, "lon": 41.46089260118814, "alt_km": 689.1288628173279, "timestamp": "2025-12-16T15:45:51.333199+00:00", "meta": {"OBJECT_NAME": "FENGYUN 1C DEB", "OBJECT_ID": "1999-025DHR", "EPOCH": "2025-12-15T02:36:45.443520", "MEAN_MOTION": 14.92661596, "ECCENTRICITY": 0.01477512, "INCLINATION": 98.9799, "RA_OF_ASC_NODE": 45.3242, "ARG_OF_PERICENTER": 207.3761, "MEAN_ANOMALY": 151.9615, "EPHEMERIS_TYPE": 0, "CLASSIFICATION_TYPE": "U", "NORAD_CAT_ID": 33728, "ELEMENT_SET_NO": 999, "REV_AT_EPOCH": 98335, "BSTAR": 0.00045899111, "MEAN_MOTION_DOT": 5.769e-05, "MEAN_MOTION_DDOT": 0}, "tle": {"line1": "1 33728U 99025DHR 25349.10885930  .00005769  00000+0  45899-3 0  9999", "line2": "2 33728  98.9799  45.3242 0147751 207.3761 151.9615 14.92661596983352"}}, "geometry": {"type": "Point", "coordinates": [41.46089260118814, 31.805894242384287]}}, {"type": "Feature", "properties": {"norad_id": 33730, "name": "FENGYUN 1C DEB", "group": "fengyun-1c-debris", "lat": -70.66629212527013, "lon": -158.24303636897798, "alt_km": 696.75277046878, "timestamp": "2025-12-16T15:45:51.333210+00:00", "meta": {"OBJECT_NAME": "FENGYUN 1C DEB", "OBJECT_ID": "1999-025DHT", "EPOCH": "2025-12-14T21:35:23.228160", "MEAN_MOTION": 14.63508661, "ECCENTRICITY": 0.00394949, "INCLINATION": 99.0546, "RA_OF_ASC_NODE": 46.8621, "ARG_OF_PERICENTER": 4.4187, "MEAN_ANOMALY": 355.7353, "EPHEMERIS_TYPE": 0, "CLASSIFICATION_TYPE": "U", "NORAD_CAT_ID": 33730, "ELEMENT_SET_NO": 999, "REV_AT_EPOCH": 95711, "BSTAR": 0.0010211337, "MEAN_MOTION_DOT": 5.298e-05, "MEAN_MOTION_DDOT": 0}, "tle": {"line1": "1 33730U 99025DHT 25348.89957440  .00005298  00000+0  10211-2 0  9999", "line2": "2 33730  99.0546  46.8621 0039494   4.4187 355.7353 14.63508661957115"}}, "geometry": {"type": "Point", "coordinates": [-158.24303636897798, -70.66629212527013]}}, {"type": "Feature", "properties": {"norad_id": 33731, "name": "FENGYUN 1C DEB", "group": "fengyun-1c-debris", "lat": -59.54892192902668, "lon": 176.51930067733758, "alt_km": 1007.7452205692362, "timestamp": "2025-12-16T15:45:51.333220+00:00", "meta": {"OBJECT_NAME": "FENGYUN 1C DEB", "OBJECT_ID": "1999-025DHU", "EPOCH": "2025-12-14T07:32:51.114336", "MEAN_MOTION": 13.95346461, "ECCENTRICITY": 0.01291818, "INCLINATION": 99.4471, "RA_OF_ASC_NODE": 10.5718, "ARG_OF_PERICENTER": 51.9301, "MEAN_ANOMALY": 309.3431, "EPHEMERIS_TYPE": 0, "CLASSIFICATION_TYPE": "U", "NORAD_CAT_ID": 33731, "ELEMENT_SET_NO": 999, "REV_AT_EPOCH": 90471, "BSTAR": 0.0013457717, "MEAN_MOTION_DOT": 1.908e-05, "MEAN_MOTION_DDOT": 0}, "tle": {"line1": "1 33731U 99025DHU 25348.31448049  .00001908  00000+0  13458-2 0  9997", "line2": "2 33731  99.4471  10.5718 0129181  51.9301 309.3431 13.95346461904712"}}, "geometry": {"type": "Point", "coordinates": [176.51930067733758, -59.54892192902668]}}, {"type": "Feature", "properties": {"norad_id": 33733, "name": "FENGYUN 1C DEB", "group": "fengyun-1c-debris", "lat": 1.1635408952940693, "lon": 75.97892090558904, "alt_km": 844.1300960298813, "timestamp": "2025-12-16T15:45:51.333230+00:00", "meta": {"OBJECT_NAME": "FENGYUN 1C DEB", "OBJECT_ID": "1999-025DHW", "EPOCH": "2025-12-14T05:17:42.025920", "MEAN_MOTION": 14.31053637, "ECCENTRICITY": 0.00804283, "INCLINATION": 99.0978, "RA_OF_ASC_NODE": 73.616, "ARG_OF_PERICENTER": 166.2685, "MEAN_ANOMALY": 251.3146, "EPHEMERIS_TYPE": 0, "CLASSIFICATION_TYPE": "U", "NORAD_CAT_ID": 33733, "ELEMENT_SET_NO": 999, "REV_AT_EPOCH": 90469, "BSTAR": 0.0039221093, "MEAN_MOTION_DOT": 0.00010671, "MEAN_MOTION_DDOT": 0}, "tle": {"line1": "1 33733U 99025DHW 25348.22062530  .00010671  00000+0  39221-2 0  9999", "line2": "2 33733  99.0978  73.6160 0080428 166.2685 251.3146 14.31053637904695"}}, "geometry": {"type": "Point", "coordinates": [75.97892090558904, 1.1635408952940693]}}, {"type": "Feature", "properties": {"norad_id": 33737, "name": "FENGYUN 1C DEB", "group": "fengyun-1c-debris", "lat": 20.034546617106802, "lon": 7.3085725598724185, "alt_km": 917.8333178891862, "timestamp": "2025-12-16T15:45:51.333240+00:00", "meta": {"OBJECT_NAME": "FENGYUN 1C DEB", "OBJECT_ID": "1999-025DJA", "EPOCH": "2025-12-15T11:44:55.410144", "MEAN_MOTION": 14.03010231, "ECCENTRICITY": 0.01284225, "INCLINATION": 98.3377, "RA_OF_ASC_NODE": 183.1733, "ARG_OF_PERICENTER": 275.3142, "MEAN_ANOMALY": 113.0718, "EPHEMERIS_TYPE": 0, "CLASSIFICATION_TYPE": "U", "NORAD_CAT_ID": 33737, "ELEMENT_SET_NO": 999, "REV_AT_EPOCH": 88779, "BSTAR": 0.0011348395, "MEAN_MOTION_DOT": 1.855e-05, "MEAN_MOTION_DDOT": 0}, "tle": {"line1": "1 33737U 99025DJA 25349.48953021  .00001855  00000+0  11348-2 0  9990", "line2": "2 33737  98.3377 183.1733 0128422 275.3142 113.0718 14.03010231887796"}}, "geometry": {"type": "Point", "coordinates": [7.3085725598724185, 20.034546617106802]}}, {"type": "Feature", "properties": {"norad_id": 33738, "name": "FENGYUN 1C DEB", "group": "fengyun-1c-debris", "lat": 32.32214266493281, "lon": 44.836378997243294, "alt_km": 768.7206751777258, "timestamp": "2025-12-16T15:45:51.333250+00:00", "meta": {"OBJECT_NAME": "FENGYUN 1C DEB", "OBJECT_ID": "1999-025DJB", "EPOCH": "2025-12-15T23:18:34.036992", "MEAN_MOTION": 13.99536666, "ECCENTRICITY": 0.01846078, "INCLINATION": 99.1516, "RA_OF_ASC_NODE": 50.0048, "ARG_OF_PERICENTER": 12.5597, "MEAN_ANOMALY": 167.054, "EPHEMERIS_TYPE": 0, "CLASSIFICATION_TYPE": "U", "NORAD_CAT_ID": 33738, "ELEMENT_SET_NO": 999, "REV_AT_EPOCH": 89281, "BSTAR": 0.00048348593, "MEAN_MOTION_DOT": 7.72e-06, "MEAN_MOTION_DDOT": 0}, "tle": {"line1": "1 33738U 99025DJB 25349.97122728  .00000772  00000+0  48349-3 0  9996", "line2": "2 33738  99.1516  50.0048 0184607  12.5597 167.0540 13.99536666892814"}}, "geometry": {"type": "Point", "coordinates": [44.836378997243294, 32.32214266493281]}}, {"type": "Feature", "properties": {"norad_id": 33740, "name": "FENGYUN 1C DEB", "group": "fengyun-1c-debris", "lat": -68.57726661862999, "lon": 160.51361855995654, "alt_km": 859.640667782025, "timestamp": "2025-12-16T15:45:51.333260+00:00", "meta": {"OBJECT_NAME": "FENGYUN 1C DEB", "OBJECT_ID": "1999-025DJD", "EPOCH": "2025-12-15T19:52:47.184096", "MEAN_MOTION": 14.1232426, "ECCENTRICITY": 0.00021379, "INCLINATION": 98.6871, "RA_OF_ASC_NODE": 2.6445, "ARG_OF_PERICENTER": 123.4499, "MEAN_ANOMALY": 236.6878, "EPHEMERIS_TYPE": 0, "CLASSIFICATION_TYPE": "U", "NORAD_CAT_ID": 33740, "ELEMENT_SET_NO": 999, "REV_AT_EPOCH": 90190, "BSTAR": 0.00016124133, "MEAN_MOTION_DOT": 2.54e-06, "MEAN_MOTION_DDOT": 0}, "tle": {"line1": "1 33740U 99025DJD 25349.82832389  .00000254  00000+0  16124-3 0  9995", "line2": "2 33740  98.6871   2.6445 0002137 123.4499 236.6878 14.12324260901908"}}, "geometry": {"type": "Point", "coordinates": [160.51361855995654, -68.57726661862999]}}, {"type": "Feature", "properties": {"norad_id": 33741, "name": "FENGYUN 1C DEB", "group": "fengyun-1c-debris", "lat": -72.07714354545912, "lon": 56.295322018787836, "alt_km": 959.2712767191024, "timestamp": "2025-12-16T15:45:51.333271+00:00", "meta": {"OBJECT_NAME": "FENGYUN 1C DEB", "OBJECT_ID": "1999-025DJE", "EPOCH": "2025-12-11T17:02:33.884160", "MEAN_MOTION": 14.09800976, "ECCENTRICITY": 0.01275257, "INCLINATION": 98.5648, "RA_OF_ASC_NODE": 259.3576, "ARG_OF_PERICENTER": 91.2636, "MEAN_ANOMALY": 270.3148, "EPHEMERIS_TYPE": 0, "CLASSIFICATION_TYPE": "U", "NORAD_CAT_ID": 33741, "ELEMENT_SET_NO": 999, "REV_AT_EPOCH": 56848, "BSTAR": 0.0031597361, "MEAN_MOTION_DOT": 5.952e-05, "MEAN_MOTION_DDOT": 0}, "tle": {"line1": "1 33741U 99025DJE 25345.71011440  .00005952  00000+0  31597-2 0  9997", "line2": "2 33741  98.5648 259.3576 0127525  91.2636 270.3148 14.09800976568486"}}, "geometry": {"type": "Point", "coordinates": [56.295322018787836, -72.07714354545912]}}]}